NORAD_CAT_ID,OBJECT_NAME,OBJECT_TYPE,EPOCH,MEAN_MOTION,ECCENTRICITY,INCLINATION,RA_OF_ASC_NODE,ARG_OF_PERICENTER,MEAN_ANOMALY,BSTAR,MEAN_MOTION_DOT,MEAN_MOTION_DDOT,TLE_LINE0,TLE_LINE1,TLE_LINE2,SEMIMAJOR_AXIS,PERIOD,APOGEE,PERIGEE,DECAYED
53640.0,STARLINK-4597,PAYLOAD,2023-09-18 20:51:55,15.08839353,0.0001496,53.2183,316.7883,106.0393,254.0764,4.2878e-05,3.94e-06,0.0,0 STARLINK-4597,1 53640U 22104BE  23261.86938747  .00000394  00000-0  42878-4 0  9992,2 53640  53.2183 316.7883 0001496 106.0393 254.0764 15.08839353 59939,6917.882,95.438,540.782,538.712,0.0
53640.0,STARLINK-4597,PAYLOAD,2023-09-19 03:13:27,15.08839106,0.0001408,53.2179,315.5987,104.2838,255.831,9.8955e-05,1.287e-05,0.0,0 STARLINK-4597,1 53640U 22104BE  23262.13434729  .00001287  00000-0  98955-4 0  9993,2 53640  53.2179 315.5987 0001408 104.2838 255.8310 15.08839106 58956,6917.883,95.438,540.722,538.774,0.0
53640.0,STARLINK-4597,PAYLOAD,2023-09-19 09:34:59,15.08861838,0.0001377,53.2163,314.4086,96.6292,263.4857,0.00057388,8.863e-05,0.0,0 STARLINK-4597,1 53640U 22104BE  23262.39929622  .00008863  00000-0  57388-3 0  9993,2 53640  53.2163 314.4086 0001377  96.6292 263.4857 15.08861838 58992,6917.814,95.436,540.631,538.726,0.0
53640.0,STARLINK-4597,PAYLOAD,2023-09-20 03:04:13,15.08860922,0.0001607,53.2154,311.1376,92.7414,267.3762,0.00063375,9.818e-05,0.0,0 STARLINK-4597,1 53640U 22104BE  23263.12793819  .00009818  00000-0  63375-3 0  9996,2 53640  53.2154 311.1376 0001607  92.7414 267.3762 15.08860922 59102,6917.816,95.436,540.793,538.57,0.0
53640.0,STARLINK-4597,PAYLOAD,2023-09-20 11:01:09,15.0884332,0.0001438,53.2156,309.6511,73.6063,286.5087,0.0014338,0.00022607,0.0,0 STARLINK-4597,1 53640U 22104BE  23263.45914124  .00022607  00000-0  14338-2 0  9991,2 53640  53.2156 309.6511 0001438  73.6063 286.5087 15.08843320 59158,6917.87,95.437,540.73,538.74,0.0
53640.0,STARLINK-4597,PAYLOAD,2023-09-21 09:16:34,15.08839302,0.000178,53.217,305.4885,75.8904,284.2285,0.00092085,0.00014397,0.0,0 STARLINK-4597,1 53640U 22104BE  23264.38650765  .00014397  00000-0  92085-3 0  9995,2 53640  53.2170 305.4885 0001780  75.8904 284.2285 15.08839302 59295,6917.883,95.438,540.979,538.516,0.0
53640.0,STARLINK-4597,PAYLOAD,2023-09-21 12:27:20,15.08841693,0.0001592,53.2162,304.8931,79.0119,281.1052,0.00047007,7.201e-05,0.0,0 STARLINK-4597,1 53640U 22104BE  23264.51898561  .00007201  00000-0  47007-3 0  9998,2 53640  53.2162 304.8931 0001592  79.0119 281.1052 15.08841693 60337,6917.875,95.437,540.842,538.639,0.0
53640.0,STARLINK-4597,PAYLOAD,2023-09-21 20:24:16,15.08841959,0.0001564,53.2162,303.4057,80.2718,279.845,0.00026912,3.998e-05,0.0,0 STARLINK-4597,1 53640U 22104BE  23264.85018536  .00003998  00000-0  26912-3 0  9992,2 53640  53.2162 303.4057 0001564  80.2718 279.8450 15.08841959 60385,6917.874,95.437,540.821,538.657,0.0
53640.0,STARLINK-4597,PAYLOAD,2023-09-22 12:18:07,15.08847952,0.0001608,53.2164,300.432,82.2802,277.8372,0.00029851,4.467e-05,0.0,0 STARLINK-4597,1 53640U 22104BE  23265.51258313  .00004467  00000-0  29851-3 0  9992,2 53640  53.2164 300.4320 0001608  82.2802 277.8372 15.08847952 60483,6917.856,95.437,540.833,538.609,0.0
53640.0,STARLINK-4597,PAYLOAD,2023-09-22 13:53:30,15.08852366,0.0001617,53.2164,300.1347,82.9296,277.188,0.00037307,5.656e-05,0.0,0 STARLINK-4597,1 53640U 22104BE  23265.57882117  .00005656  00000-0  37307-3 0  9999,2 53640  53.2164 300.1347 0001617  82.9296 277.1880 15.08852366 60496,6917.843,95.437,540.826,538.589,0.0
53640.0,STARLINK-4597,PAYLOAD,2023-09-23 02:36:35,15.08843057,0.0001938,53.2172,297.7574,72.1096,288.0107,8.6552e-05,1.09e-05,0.0,0 STARLINK-4597,1 53640U 22104BE  23266.10874543  .00001090  00000-0  86552-4 0  9998,2 53640  53.2172 297.7574 0001938  72.1096 288.0107 15.08843057 59558,6917.871,95.437,541.077,538.395,0.0
53640.0,STARLINK-4597,PAYLOAD,2023-09-23 12:08:54,15.0884646,0.0001535,53.2166,295.9709,94.5936,265.5232,0.00013055,1.791e-05,0.0,0 STARLINK-4597,1 53640U 22104BE  23266.50618161  .00001791  00000-0  13055-3 0  9999,2 53640  53.2166 295.9709 0001535  94.5936 265.5232 15.08846460 60636,6917.861,95.437,540.788,538.664,0.0
53640.0,STARLINK-4597,PAYLOAD,2023-09-24 08:48:55,15.08840171,0.000154,53.2169,292.1044,96.1572,263.9596,-5.9057e-06,-3.82e-06,0.0,0 STARLINK-4597,1 53640U 22104BE  23267.36730473 -.00000382  00000-0 -59057-5 0  9996,2 53640  53.2169 292.1044 0001540  96.1572 263.9596 15.08840171 59748,6917.88,95.438,540.81,538.68,0.0
53640.0,STARLINK-4597,PAYLOAD,2023-09-24 13:35:04,15.08846478,0.0001522,53.217,291.2124,103.9825,256.1337,7.7215e-05,9.41e-06,0.0,0 STARLINK-4597,1 53640U 22104BE  23267.56602032  .00000941  00000-0  77215-4 0  9991,2 53640  53.2170 291.2124 0001522 103.9825 256.1337 15.08846478 60797,6917.861,95.437,540.778,538.673,0.0
53640.0,STARLINK-4597,PAYLOAD,2023-09-25 08:39:42,15.08844252,0.0001474,53.2166,287.6466,94.4286,265.6875,0.00012884,1.763e-05,0.0,0 STARLINK-4597,1 53640U 22104BE  23268.36090409  .00001763  00000-0  12884-3 0  9992,2 53640  53.2166 287.6466 0001474  94.4286 265.6875 15.08844252 59890,6917.867,95.437,540.752,538.713,0.0
53640.0,STARLINK-4597,PAYLOAD,2023-09-25 11:50:28,15.08848409,0.0001486,53.2167,287.0515,89.4745,270.6418,0.00020714,3.011e-05,0.0,0 STARLINK-4597,1 53640U 22104BE  23268.49338221  .00003011  00000-0  20714-3 0  9992,2 53640  53.2167 287.0515 0001486  89.4745 270.6418 15.08848409 60931,6917.855,95.437,540.748,538.692,0.0
53640.0,STARLINK-4597,PAYLOAD,2023-09-25 18:12:01,15.08842004,0.0001502,53.2171,285.8613,84.7864,275.3299,7.5839e-05,9.19e-06,0.0,0 STARLINK-4597,1 53640U 22104BE  23268.75834572  .00000919  00000-0  75839-4 0  9994,2 53640  53.2171 285.8613 0001502  84.7864 275.3299 15.08842004 60978,6917.874,95.437,540.778,538.7,0.0
53640.0,STARLINK-4597,PAYLOAD,2023-09-26 08:30:28,15.08850348,0.0001398,53.216,283.1826,87.2571,272.8582,0.00019659,2.843e-05,0.0,0 STARLINK-4597,1 53640U 22104BE  23269.35449931  .00002843  00000-0  19659-3 0  9997,2 53640  53.2160 283.1826 0001398  87.2571 272.8582 15.08850348 61067,6917.849,95.437,540.681,538.747,0.0
53640.0,STARLINK-4597,PAYLOAD,2023-09-27 00:24:20,15.08839137,0.000132,53.2148,280.2117,91.0654,269.049,7.231e-05,8.63e-06,0.0,0 STARLINK-4597,1 53640U 22104BE  23270.01690417  .00000863  00000-0  72310-4 0  9993,2 53640  53.2148 280.2117 0001320  91.0654 269.0490 15.08839137 60141,6917.883,95.438,540.661,538.835,0.0
53640.0,STARLINK-4597,PAYLOAD,2023-09-27 09:56:39,15.08839878,0.0001333,53.2164,278.4258,84.3,275.8144,-2.3704e-05,-6.65e-06,0.0,0 STARLINK-4597,1 53640U 22104BE  23270.41434948 -.00000665  00000-0 -23704-4 0  9997,2 53640  53.2164 278.4258 0001333  84.3000 275.8144 15.08839878 61221,6917.881,95.438,540.668,538.824,0.0
53640.0,STARLINK-4597,PAYLOAD,2023-09-28 00:15:08,15.08831334,0.0001379,53.2163,275.7492,86.3881,273.7269,-1.7559e-05,-5.67e-06,0.0,0 STARLINK-4597,1 53640U 22104BE  23271.01051612 -.00000567  00000-0 -17559-4 0  9999,2 53640  53.2163 275.7492 0001379  86.3881 273.7269 15.08831334 60299,6917.907,95.438,540.726,538.818,0.0
53640.0,STARLINK-4597,PAYLOAD,2023-09-28 06:36:40,15.08834158,0.0001489,53.2173,274.5612,86.1434,273.9728,2.1975e-05,6.2e-07,0.0,0 STARLINK-4597,1 53640U 22104BE  23271.27547284  .00000062  00000-0  21975-4 0  9997,2 53640  53.2173 274.5612 0001489  86.1434 273.9728 15.08834158 61352,6917.898,95.438,540.793,538.733,0.0
53640.0,STARLINK-4597,PAYLOAD,2023-09-29 11:13:36,15.08846386,0.0001476,53.2169,269.2085,92.759,267.3571,0.00019497,2.817e-05,0.0,0 STARLINK-4597,1 53640U 22104BE  23272.46778258  .00002817  00000-0  19497-3 0  9991,2 53640  53.2169 269.2085 0001476  92.7590 267.3571 15.08846386 60510,6917.861,95.437,540.747,538.705,0.0
53640.0,STARLINK-4597,PAYLOAD,2023-09-30 03:07:28,15.08842704,0.0001467,53.2166,266.2335,117.4586,242.6555,0.00011244,1.502e-05,0.0,0 STARLINK-4597,1 53640U 22104BE  23273.13018727  .00001502  00000-0  11244-3 0  9996,2 53640  53.2166 266.2335 0001467 117.4586 242.6555 15.08842704 60611,6917.872,95.437,540.752,538.722,0.0
53640.0,STARLINK-4597,PAYLOAD,2023-09-30 04:42:51,15.08842251,0.0001306,53.2168,265.9409,86.4333,273.6808,0.00015375,2.16e-05,0.0,0 STARLINK-4597,1 53640U 22104BE  23273.19642820  .00002160  00000-0  15375-3 0  9999,2 53640  53.2168 265.9409 0001306  86.4333 273.6808 15.08842251 61644,6917.874,95.437,540.642,538.835,0.0
53640.0,STARLINK-4597,PAYLOAD,2023-10-01 02:58:16,15.0883814,0.0001363,53.2161,261.7744,97.292,262.8228,-5.9566e-05,-1.236e-05,0.0,0 STARLINK-4597,1 53640U 22104BE  23274.12379661 -.00001236  00000-0 -59566-4 0  9999,2 53640  53.2161 261.7744 0001363  97.2920 262.8228 15.08838140 60768,6917.886,95.438,540.694,538.808,0.0
53640.0,STARLINK-4597,PAYLOAD,2023-10-01 06:09:02,15.08841401,0.0001377,53.2166,261.1803,90.436,269.679,-4.6038e-05,-1.021e-05,0.0,0 STARLINK-4597,1 53640U 22104BE  23274.25627408 -.00001021  00000-0 -46038-4 0  9990,2 53640  53.2166 261.1803 0001377  90.4360 269.6790 15.08841401 61800,6917.876,95.437,540.694,538.789,0.0
53640.0,STARLINK-4597,PAYLOAD,2023-10-01 15:41:21,15.08839091,0.000138,53.2166,259.3963,88.0688,272.0463,-6.5588e-05,-1.332e-05,0.0,0 STARLINK-4597,1 53640U 22104BE  23274.65371618 -.00001332  00000-0 -65588-4 0  9999,2 53640  53.2166 259.3963 0001380  88.0688 272.0463 15.08839091 61869,6917.883,95.438,540.703,538.793,0.0
53640.0,STARLINK-4597,PAYLOAD,2023-10-02 05:59:48,15.08845597,0.0001365,53.2165,256.7215,90.2651,269.8498,3.073e-05,2.01e-06,0.0,0 STARLINK-4597,1 53640U 22104BE  23275.24987212  .00000201  00000-0  30730-4 0  9991,2 53640  53.2165 256.7215 0001365  90.2651 269.8498 15.08845597 60934,6917.863,95.437,540.673,538.784,0.0
53640.0,STARLINK-4597,PAYLOAD,2023-10-02 15:32:08,15.08826349,0.0001206,53.2164,254.9367,99.6232,260.4897,-1.3582e-05,-5.04e-06,0.0,0 STARLINK-4597,1 53640U 22104BE  23275.64732430 -.00000504  00000-0 -13582-4 0  9999,2 53640  53.2164 254.9367 0001206  99.6232 260.4897 15.08826349 60993,6917.922,95.438,540.621,538.953,0.0
